[{"OBJECT_NAME":"HYLAS 4","OBJECT_ID":"2018-033B","EPOCH":"2026-03-02T17:22:45.226848","MEAN_MOTION":1.00269203,"ECCENTRICITY":0.0001218,"INCLINATION":0.0175,"RA_OF_ASC_NODE":106.5334,"ARG_OF_PERICENTER":253.517,"MEAN_ANOMALY":27.5793,"EPHEMERIS_TYPE":0,"CLASSIFICATION_TYPE":"U","NORAD_CAT_ID":43272,"ELEMENT_SET_NO":999,"REV_AT_EPOCH":2899,"BSTAR":0,"MEAN_MOTION_DOT":-2.51e-6,"MEAN_MOTION_DDOT":0},{"OBJECT_NAME":"IRNSS-1I","OBJECT_ID":"2018-035A","EPOCH":"2026-03-02T14:22:44.492448","MEAN_MOTION":1.0027683,"ECCENTRICITY":0.0019149,"INCLINATION":28.9253,"RA_OF_ASC_NODE":75.8423,"ARG_OF_PERICENTER":190.1305,"MEAN_ANOMALY":165.1674,"EPHEMERIS_TYPE":0,"CLASSIFICATION_TYPE":"U","NORAD_CAT_ID":43286,"ELEMENT_SET_NO":999,"REV_AT_EPOCH":2900,"BSTAR":0,"MEAN_MOTION_DOT":8.1e-7,"MEAN_MOTION_DDOT":0},{"OBJECT_NAME":"USA 283","OBJECT_ID":"2018-036A","EPOCH":"2026-02-28T13:07:08.139936","MEAN_MOTION":1.00269721,"ECCENTRICITY":6.09e-5,"INCLINATION":0.0092,"RA_OF_ASC_NODE":146.1125,"ARG_OF_PERICENTER":207.6918,"MEAN_ANOMALY":135.4057,"EPHEMERIS_TYPE":0,"CLASSIFICATION_TYPE":"U","NORAD_CAT_ID":43339,"ELEMENT_SET_NO":999,"REV_AT_EPOCH":2420,"BSTAR":0,"MEAN_MOTION_DOT":-3.35e-6,"MEAN_MOTION_DDOT":0},{"OBJECT_NAME":"COSMOS 2526","OBJECT_ID":"2018-037A","EPOCH":"2026-03-02T07:52:41.021184","MEAN_MOTION":1.00272498,"ECCENTRICITY":5.607e-5,"INCLINATION":0.0199,"RA_OF_ASC_NODE":142.1497,"ARG_OF_PERICENTER":319.0807,"MEAN_ANOMALY":305.1003,"EPHEMERIS_TYPE":0,"CLASSIFICATION_TYPE":"U","NORAD_CAT_ID":43432,"ELEMENT_SET_NO":999,"REV_AT_EPOCH":2888,"BSTAR":0,"MEAN_MOTION_DOT":-3.62e-6,"MEAN_MOTION_DDOT":0},{"OBJECT_NAME":"APSTAR-6C","OBJECT_ID":"2018-041A","EPOCH":"2026-03-02T21:22:32.322432","MEAN_MOTION":1.00273108,"ECCENTRICITY":0.0003177,"INCLINATION":0.0353,"RA_OF_ASC_NODE":333.9201,"ARG_OF_PERICENTER":4.3634,"MEAN_ANOMALY":277.0055,"EPHEMERIS_TYPE":0,"CLASSIFICATION_TYPE":"U","NORAD_CAT_ID":43450,"ELEMENT_SET_NO":999,"REV_AT_EPOCH":2874,"BSTAR":0,"MEAN_MOTION_DOT":-3.34e-6,"MEAN_MOTION_DDOT":0},{"OBJECT_NAME":"BANGABANDHUSAT-1","OBJECT_ID":"2018-044A","EPOCH":"2026-03-02T12:37:51.532032","MEAN_MOTION":1.00271681,"ECCENTRICITY":0.0002365,"INCLINATION":0.028,"RA_OF_ASC_NODE":109.9346,"ARG_OF_PERICENTER":236.4798,"MEAN_ANOMALY":122.4386,"EPHEMERIS_TYPE":0,"CLASSIFICATION_TYPE":"U","NORAD_CAT_ID":43463,"ELEMENT_SET_NO":999,"REV_AT_EPOCH":2864,"BSTAR":0,"MEAN_MOTION_DOT":-3.8e-6,"MEAN_MOTION_DDOT":0},{"OBJECT_NAME":"SES-12","OBJECT_ID":"2018-049A","EPOCH":"2026-03-02T20:26:11.227776","MEAN_MOTION":1.00268084,"ECCENTRICITY":0.0002165,"INCLINATION":0.0205,"RA_OF_ASC_NODE":117.709,"ARG_OF_PERICENTER":182.3965,"MEAN_ANOMALY":262.082,"EPHEMERIS_TYPE":0,"CLASSIFICATION_TYPE":"U","NORAD_CAT_ID":43488,"ELEMENT_SET_NO":999,"REV_AT_EPOCH":2835,"BSTAR":0,"MEAN_MOTION_DOT":0,"MEAN_MOTION_DDOT":0},{"OBJECT_NAME":"FENGYUN 2H","OBJECT_ID":"2018-050A","EPOCH":"2026-03-02T21:29:11.288256","MEAN_MOTION":1.00272604,"ECCENTRICITY":0.0002016,"INCLINATION":2.7565,"RA_OF_ASC_NODE":80.3709,"ARG_OF_PERICENTER":173.4098,"MEAN_ANOMALY":308.2405,"EPHEMERIS_TYPE":0,"CLASSIFICATION_TYPE":"U","NORAD_CAT_ID":43491,"ELEMENT_SET_NO":999,"REV_AT_EPOCH":2837,"BSTAR":0,"MEAN_MOTION_DOT":-1.42e-6,"MEAN_MOTION_DDOT":0},{"OBJECT_NAME":"BEIDOU-2 IGSO-7","OBJECT_ID":"2018-057A","EPOCH":"2026-02-25T17:45:22.620960","MEAN_MOTION":1.00284731,"ECCENTRICITY":0.00999628,"INCLINATION":55.1859,"RA_OF_ASC_NODE":164.0342,"ARG_OF_PERICENTER":236.5988,"MEAN_ANOMALY":133.5173,"EPHEMERIS_TYPE":0,"CLASSIFICATION_TYPE":"U","NORAD_CAT_ID":43539,"ELEMENT_SET_NO":999,"REV_AT_EPOCH":2801,"BSTAR":0,"MEAN_MOTION_DOT":-1.61e-6,"MEAN_MOTION_DDOT":0},{"OBJECT_NAME":"TELSTAR 19V","OBJECT_ID":"2018-059A","EPOCH":"2026-03-02T08:40:51.401856","MEAN_MOTION":1.00270922,"ECCENTRICITY":4.601e-5,"INCLINATION":0.0204,"RA_OF_ASC_NODE":163.5323,"ARG_OF_PERICENTER":253.4579,"MEAN_ANOMALY":170.3385,"EPHEMERIS_TYPE":0,"CLASSIFICATION_TYPE":"U","NORAD_CAT_ID":43562,"ELEMENT_SET_NO":999,"REV_AT_EPOCH":2807,"BSTAR":0,"MEAN_MOTION_DOT":-2.97e-6,"MEAN_MOTION_DDOT":0},{"OBJECT_NAME":"TELKOM 4 (MERAH PUTIH)","OBJECT_ID":"2018-064A","EPOCH":"2026-03-02T20:27:38.001024","MEAN_MOTION":1.00271229,"ECCENTRICITY":0.0001598,"INCLINATION":0.0099,"RA_OF_ASC_NODE":159.7699,"ARG_OF_PERICENTER":214.3271,"MEAN_ANOMALY":201.4215,"EPHEMERIS_TYPE":0,"CLASSIFICATION_TYPE":"U","NORAD_CAT_ID":43587,"ELEMENT_SET_NO":999,"REV_AT_EPOCH":2781,"BSTAR":0,"MEAN_MOTION_DOT":-3.6e-6,"MEAN_MOTION_DDOT":0},{"OBJECT_NAME":"TELSTAR 18V","OBJECT_ID":"2018-069A","EPOCH":"2026-03-02T12:01:45.136704","MEAN_MOTION":1.00271776,"ECCENTRICITY":0.00023136,"INCLINATION":0.0216,"RA_OF_ASC_NODE":239.0373,"ARG_OF_PERICENTER":99.9795,"MEAN_ANOMALY":139.6885,"EPHEMERIS_TYPE":0,"CLASSIFICATION_TYPE":"U","NORAD_CAT_ID":43611,"ELEMENT_SET_NO":999,"REV_AT_EPOCH":2756,"BSTAR":0,"MEAN_MOTION_DOT":-3.11e-6,"MEAN_MOTION_DDOT":0},{"OBJECT_NAME":"AZERSPACE 2 (IS-38)","OBJECT_ID":"2018-074A","EPOCH":"2026-03-02T17:45:13.072032","MEAN_MOTION":1.00269584,"ECCENTRICITY":0.0001485,"INCLINATION":0.025,"RA_OF_ASC_NODE":149.9423,"ARG_OF_PERICENTER":198.0695,"MEAN_ANOMALY":123.9322,"EPHEMERIS_TYPE":0,"CLASSIFICATION_TYPE":"U","NORAD_CAT_ID":43632,"ELEMENT_SET_NO":999,"REV_AT_EPOCH":2738,"BSTAR":0,"MEAN_MOTION_DOT":0,"MEAN_MOTION_DDOT":0},{"OBJECT_NAME":"HORIZONS-3E","OBJECT_ID":"2018-074B","EPOCH":"2026-03-02T09:13:51.659616","MEAN_MOTION":1.00271501,"ECCENTRICITY":6.802e-5,"INCLINATION":0.0174,"RA_OF_ASC_NODE":320.81,"ARG_OF_PERICENTER":1.7401,"MEAN_ANOMALY":145.0434,"EPHEMERIS_TYPE":0,"CLASSIFICATION_TYPE":"U","NORAD_CAT_ID":43633,"ELEMENT_SET_NO":999,"REV_AT_EPOCH":2727,"BSTAR":0,"MEAN_MOTION_DOT":-4.8e-7,"MEAN_MOTION_DDOT":0},{"OBJECT_NAME":"AEHF-4 (USA 288)","OBJECT_ID":"2018-079A","EPOCH":"2026-03-02T12:04:42.724128","MEAN_MOTION":1.00273697,"ECCENTRICITY":0.0064062,"INCLINATION":1.4228,"RA_OF_ASC_NODE":354.5177,"ARG_OF_PERICENTER":359.0678,"MEAN_ANOMALY":280.3367,"EPHEMERIS_TYPE":0,"CLASSIFICATION_TYPE":"U","NORAD_CAT_ID":43651,"ELEMENT_SET_NO":999,"REV_AT_EPOCH":2722,"BSTAR":0,"MEAN_MOTION_DOT":-2.91e-6,"MEAN_MOTION_DDOT":0},{"OBJECT_NAME":"BEIDOU-3 G1","OBJECT_ID":"2018-085A","EPOCH":"2026-03-02T18:12:17.976960","MEAN_MOTION":1.00269049,"ECCENTRICITY":0.000129,"INCLINATION":2.8063,"RA_OF_ASC_NODE":100.4335,"ARG_OF_PERICENTER":30.1716,"MEAN_ANOMALY":83.0505,"EPHEMERIS_TYPE":0,"CLASSIFICATION_TYPE":"U","NORAD_CAT_ID":43683,"ELEMENT_SET_NO":999,"REV_AT_EPOCH":2699,"BSTAR":0,"MEAN_MOTION_DOT":-2.94e-6,"MEAN_MOTION_DDOT":0},{"OBJECT_NAME":"GSAT-29","OBJECT_ID":"2018-089A","EPOCH":"2026-03-02T19:44:38.776128","MEAN_MOTION":1.00271064,"ECCENTRICITY":0.0001862,"INCLINATION":0.0615,"RA_OF_ASC_NODE":273.6993,"ARG_OF_PERICENTER":49.3646,"MEAN_ANOMALY":188.7024,"EPHEMERIS_TYPE":0,"CLASSIFICATION_TYPE":"U","NORAD_CAT_ID":43698,"ELEMENT_SET_NO":999,"REV_AT_EPOCH":2672,"BSTAR":0,"MEAN_MOTION_DOT":6.9e-7,"MEAN_MOTION_DDOT":0}]
