HYLAS 4                 
1 43272U 18033B   26061.72413457 -.00000251  00000+0  00000+0 0  9998
2 43272   0.0175 106.5334 0001218 253.5170  27.5793  1.00269203 28994
IRNSS-1I                
1 43286U 18035A   26061.59912607  .00000081  00000+0  00000+0 0  9991
2 43286  28.9253  75.8423 0019149 190.1305 165.1674  1.00276830 29004
USA 283                 
1 43339U 18036A   26059.54662199 -.00000335  00000+0  00000+0 0  9994
2 43339   0.0092 146.1125 0000609 207.6918 135.4057  1.00269721 24204
COSMOS 2526             
1 43432U 18037A   26061.32825256 -.00000362  00000+0  00000+0 0  9993
2 43432   0.0199 142.1497 0000560 319.0807 305.1003  1.00272498 28885
APSTAR-6C               
1 43450U 18041A   26061.89065188 -.00000334  00000+0  00000+0 0  9999
2 43450   0.0353 333.9201 0003177   4.3634 277.0055  1.00273108 28747
BANGABANDHUSAT-1        
1 43463U 18044A   26061.52629088 -.00000380  00000+0  00000+0 0  9992
2 43463   0.0280 109.9346 0002365 236.4798 122.4386  1.00271681 28641
SES-12                  
1 43488U 18049A   26061.85151884  .00000000  00000+0  00000+0 0  9992
2 43488   0.0205 117.7090 0002165 182.3965 262.0820  1.00268084 28356
FENGYUN 2H              
1 43491U 18050A   26061.89526954 -.00000142  00000+0  00000+0 0  9994
2 43491   2.7565  80.3709 0002016 173.4098 308.2405  1.00272604 28370
BEIDOU-2 IGSO-7         
1 43539U 18057A   26056.73984515 -.00000161  00000+0  00000+0 0  9993
2 43539  55.1859 164.0342 0099962 236.5988 133.5173  1.00284731 28015
TELSTAR 19V             
1 43562U 18059A   26061.36170604 -.00000297  00000+0  00000+0 0  9992
2 43562   0.0204 163.5323 0000460 253.4579 170.3385  1.00270922 28073
TELKOM 4 (MERAH PUTIH)  
1 43587U 18064A   26061.85252316 -.00000360  00000+0  00000+0 0  9991
2 43587   0.0099 159.7699 0001598 214.3271 201.4215  1.00271229 27813
TELSTAR 18V             
1 43611U 18069A   26061.50121686 -.00000311  00000+0  00000+0 0  9997
2 43611   0.0216 239.0373 0002313  99.9795 139.6885  1.00271776 27561
AZERSPACE 2 (IS-38)     
1 43632U 18074A   26061.73973463  .00000000  00000+0  00000+0 0  9993
2 43632   0.0250 149.9423 0001485 198.0695 123.9322  1.00269584 27382
HORIZONS-3E             
1 43633U 18074B   26061.38462569 -.00000048  00000+0  00000+0 0  9998
2 43633   0.0174 320.8100 0000680   1.7401 145.0434  1.00271501 27270
AEHF-4 (USA 288)        
1 43651U 18079A   26061.50327227 -.00000291  00000+0  00000+0 0  9998
2 43651   1.4228 354.5177 0064062 359.0678 280.3367  1.00273697 27223
BEIDOU-3 G1             
1 43683U 18085A   26061.75854140 -.00000294  00000+0  00000+0 0  9999
2 43683   2.8063 100.4335 0001290  30.1716  83.0505  1.00269049 26999
GSAT-29                 
1 43698U 18089A   26061.82267102  .00000069  00000+0  00000+0 0  9992
2 43698   0.0615 273.6993 0001862  49.3646 188.7024  1.00271064 26720
